{"format":"tle-catalog-v1","generatedAt":"2026-07-01T14:19:31.438Z","count":19018,"entries":[{"name":"CENTISPACE-1 GROUP 05 O*","line1":"1 69636U 26138J   26181.62594826 -.00000403  00000+0 -12609-3 0  9999","line2":"2 69636  55.1403 231.5101 0008536 310.1937  49.8290 14.15848750  1892"},{"name":"HOKUSHIN-1","line1":"1 69648U 98067YH  26181.53550636  .00021961  00000+0  38606-3 0  9998","line2":"2 69648  51.6312 233.9553 0006162 274.0877  85.9407 15.50397000  1726"},{"name":"STARLINK-37229","line1":"1 69659U 26143L   26182.16670139 -.00124924  00000+0 -65639-3 0  9998","line2":"2 69659  97.2824 225.7287 0001509  87.8015   3.2848 15.80961817  2650"},{"name":"STARLINK-37554","line1":"1 69663U 26143Q   26182.16670139 -.00113387  00000+0 -59722-3 0  9990","line2":"2 69663  97.2833 225.7502 0001239  76.8052  65.9934 15.80878301  2650"},{"name":"STARLINK-37556","line1":"1 69660U 26143M   26182.16670139 -.00046240  00000+0 -24196-3 0  9997","line2":"2 69660  97.2826 225.7330 0001151  95.3748   6.2780 15.80814635  2656"},{"name":"STARLINK-37646","line1":"1 69650U 26143B   26182.16670139 -.00119907  00000+0 -62968-3 0  9996","line2":"2 69650  97.2828 225.7312 0001372  73.7895  22.9555 15.80960655  2711"},{"name":"STARLINK-37656","line1":"1 69649U 26143A   26182.16670139 -.00103692  00000+0 -54587-3 0  9996","line2":"2 69649  97.2826 225.7176 0000240  38.7107  25.9551 15.80865262  2712"},{"name":"STARLINK-37729","line1":"1 69653U 26143E   26182.16670139 -.00146610  00000+0 -77525-3 0  9995","line2":"2 69653  97.2830 225.7343 0000906  46.3960  56.9064 15.80882345  2713"},{"name":"STARLINK-37749","line1":"1 69651U 26143C   26182.16670139 -.00105284  00000+0 -55233-3 0  9997","line2":"2 69651  97.2827 225.7359 0001388  69.4312  38.2655 15.80942882  2718"},{"name":"STARLINK-37784","line1":"1 69657U 26143J   26182.16670139 -.00135926  00000+0 -71769-3 0  9991","line2":"2 69657  97.2824 225.7376 0001262  73.2733  38.9317 15.80885489  2611"},{"name":"STARLINK-37819","line1":"1 69652U 26143D   26182.16670139 -.00072419  00000+0 -37981-3 0  9991","line2":"2 69652  97.2826 225.7245 0001289  79.0847   0.8430 15.80854267  2717"},{"name":"STARLINK-37830","line1":"1 69664U 26143R   26182.16670139 -.00155008  00000+0 -82029-3 0  9993","line2":"2 69664  97.2824 225.7352 0000719  67.8594  41.4056 15.80887976  2604"},{"name":"STARLINK-37837","line1":"1 69665U 26143S   26182.16670139 -.00154051  00000+0 -81457-3 0  9995","line2":"2 69665  97.2831 225.7513 0000492  52.0152  94.5561 15.80903518  2618"},{"name":"STARLINK-37838","line1":"1 69654U 26143F   26182.16670139 -.00052120  00000+0 -27261-3 0  9990","line2":"2 69654  97.2825 225.7259 0001212  74.9512   9.0878 15.80846353  2716"},{"name":"STARLINK-37851","line1":"1 69658U 26143K   26182.16670139 -.00012409  00000+0 -64104-4 0  9998","line2":"2 69658  97.2823 225.7481 0001153  56.8100  81.0006 15.80826060  2605"},{"name":"STARLINK-37852","line1":"1 69662U 26143P   26182.16670139 -.00166068  00000+0 -87980-3 0  9990","line2":"2 69662  97.2823 225.7332 0001183  67.8145  36.8259 15.80890979  2618"},{"name":"STARLINK-37867","line1":"1 69661U 26143N   26182.16670139 -.00631787  00000+0 -34750-2 0  9990","line2":"2 69661  97.2817 225.7531 0001383  68.6226  81.7989 15.81232720  2616"},{"name":"STARLINK-37876","line1":"1 69656U 26143H   26182.16670139 -.00071783  00000+0 -37642-3 0  9992","line2":"2 69656  97.2827 225.7378 0000822 100.2459  10.1689 15.80856293  2617"},{"name":"STARLINK-37884","line1":"1 69655U 26143G   26182.16670139 -.00039636  00000+0 -20690-3 0  9997","line2":"2 69655  97.2827 225.7461 0001393 100.6213  31.9159 15.80839606  2718"},{"name":"STARLINK-37930","line1":"1 69668U 26143V   26182.16670139 -.00193780  00000+0 -10294-2 0  9990","line2":"2 69668  97.2824 225.7465 0001238  83.7764  50.4176 15.80903755  2603"},{"name":"STARLINK-37941","line1":"1 69667U 26143U   26182.16670139 -.00147059  00000+0 -77753-3 0  9991","line2":"2 69667  97.2825 225.7439 0001322  70.5586  57.6092 15.80884747  2610"},{"name":"STARLINK-37943","line1":"1 69666U 26143T   26182.16670139 -.00061297  00000+0 -32094-3 0  9998","line2":"2 69666  97.2829 225.7467 0001823 133.5565   2.7696 15.80853897  2610"},{"name":"STARLINK-37945","line1":"1 69669U 26143W   26182.16670139 -.00149600  00000+0 -79097-3 0  9990","line2":"2 69669  97.2827 225.7510 0001108  65.9867  78.1590 15.80891848  2617"},{"name":"STARLINK-37946","line1":"1 69672U 26143Z   26182.16670139 -.00046982  00000+0 -24559-3 0  9996","line2":"2 69672  97.2828 225.7632 0001331  70.4675 102.6132 15.80839097  2616"},{"name":"STARLINK-37948","line1":"1 69670U 26143X   26182.16670139 -.02415359  00000+0 -12708-1 0  9995","line2":"2 69670  97.2825 225.7852 0001745  77.9530 144.2127 15.83765098  2614"},{"name":"STARLINK-37949","line1":"1 69671U 26143Y   26182.16670139 -.00067442  00000+0 -35366-3 0  9997","line2":"2 69671  97.2827 225.7729 0001455  48.4428 147.2616 15.80840951  2612"},{"name":"VICTUS HAZE PUMA","line1":"1 69646U 26142A   26182.16504378  .00004046  00000+0  18596-3 0  9994","line2":"2 69646  97.4473  79.6282 0020939 276.5082  83.3769 15.20754232  1798"},{"name":"ZHUQUE-2E DEB","line1":"1 69631U 26128F   26181.65444496  .00185135  00000+0  16875-2 0  9995","line2":"2 69631  54.5249 240.6451 0065874   1.0672 359.0490 15.64057560  3286"},{"name":"ZHUQUE-2E DEB","line1":"1 69634U 26128J   26181.58927941  .00825569  25819-3  32614-2 0  9991","line2":"2 69634  54.5313 238.8221 0078984  38.4577 322.2056 15.81370662  3188"},{"name":"ZHUQUE-2E DEB","line1":"1 69635U 26128K   26181.47007618  .03006126  11794-1  48251-2 0  9992","line2":"2 69635  54.5279 238.9146 0052791  29.4296 330.9708 16.02873581  2858"}]}