OBJECT_NAME,OBJECT_ID,EPOCH,MEAN_MOTION,ECCENTRICITY,INCLINATION,RA_OF_ASC_NODE,ARG_OF_PERICENTER,MEAN_ANOMALY,EPHEMERIS_TYPE,CLASSIFICATION_TYPE,NORAD_CAT_ID,ELEMENT_SET_NO,REV_AT_EPOCH,BSTAR,MEAN_MOTION_DOT,MEAN_MOTION_DDOT
ZHUQUE-2E DEB,2026-128F,2026-06-30T15:42:24.044544,15.64057560,.00658743,54.5249,240.6451,1.0672,359.0490,0,U,69631,999,328,.16874864E-2,.185135E-2,0
ZHUQUE-2E DEB,2026-128J,2026-06-30T14:08:33.741024,15.81370662,.00789843,54.5313,238.8221,38.4577,322.2056,0,U,69634,999,318,.32614178E-2,.825569E-2,.25818629E-3
ZHUQUE-2E DEB,2026-128K,2026-06-30T11:16:54.581952,16.02873581,.0052791,54.5279,238.9146,29.4296,330.9708,0,U,69635,999,285,.48251498E-2,.3006126E-1,.11793888E-1
CENTISPACE-1 GROUP 05 OBJECT J,2026-138J,2026-06-30T15:01:21.929664,14.15848750,.00085368,55.1403,231.5101,310.1937,49.8290,0,U,69636,999,189,-.12608528E-3,-.403E-5,0
VICTUS HAZE PUMA,2026-142A,2026-07-01T03:57:39.782592,15.20754232,.0020939,97.4473,79.6282,276.5082,83.3769,0,U,69646,999,179,.18596E-3,.4046E-4,0
HOKUSHIN-1,1998-067YH,2026-06-30T12:51:07.749504,15.50397000,.00061624,51.6312,233.9553,274.0877,85.9407,0,U,69648,999,172,.38606417E-3,.21961E-3,0
STARLINK-37656,2026-143A,2026-07-01T04:00:03.000096,15.80865262,.000024,97.2826,225.7176,38.7107,25.9551,0,U,69649,999,271,-.54587E-3,-.103692E-2,0
STARLINK-37646,2026-143B,2026-07-01T04:00:03.000096,15.80960655,.0001372,97.2828,225.7312,73.7895,22.9555,0,U,69650,999,271,-.62968E-3,-.119907E-2,0
STARLINK-37749,2026-143C,2026-07-01T04:00:03.000096,15.80942882,.0001388,97.2827,225.7359,69.4312,38.2655,0,U,69651,999,271,-.55233E-3,-.105284E-2,0
STARLINK-37819,2026-143D,2026-07-01T04:00:03.000096,15.80854267,.0001289,97.2826,225.7245,79.0847,0.8430,0,U,69652,999,271,-.37981E-3,-.72419E-3,0
STARLINK-37729,2026-143E,2026-07-01T04:00:03.000096,15.80882345,.0000906,97.2830,225.7343,46.3960,56.9064,0,U,69653,999,271,-.77525E-3,-.14661E-2,0
STARLINK-37838,2026-143F,2026-07-01T04:00:03.000096,15.80846353,.0001212,97.2825,225.7259,74.9512,9.0878,0,U,69654,999,271,-.27261E-3,-.5212E-3,0
STARLINK-37884,2026-143G,2026-07-01T04:00:03.000096,15.80839606,.0001393,97.2827,225.7461,100.6213,31.9159,0,U,69655,999,271,-.2069E-3,-.39636E-3,0
STARLINK-37876,2026-143H,2026-07-01T04:00:03.000096,15.80856293,.0000822,97.2827,225.7378,100.2459,10.1689,0,U,69656,999,261,-.37642E-3,-.71783E-3,0
STARLINK-37784,2026-143J,2026-07-01T04:00:03.000096,15.80885489,.0001262,97.2824,225.7376,73.2733,38.9317,0,U,69657,999,261,-.71769E-3,-.135926E-2,0
STARLINK-37851,2026-143K,2026-07-01T04:00:03.000096,15.80826060,.0001153,97.2823,225.7481,56.8100,81.0006,0,U,69658,999,260,-.64104E-4,-.12409E-3,0
STARLINK-37229,2026-143L,2026-07-01T04:00:03.000096,15.80961817,.0001509,97.2824,225.7287,87.8015,3.2848,0,U,69659,999,265,-.65639E-3,-.124924E-2,0
STARLINK-37556,2026-143M,2026-07-01T04:00:03.000096,15.80814635,.0001151,97.2826,225.7330,95.3748,6.2780,0,U,69660,999,265,-.24196E-3,-.4624E-3,0
STARLINK-37867,2026-143N,2026-07-01T04:00:03.000096,15.81232720,.0001383,97.2817,225.7531,68.6226,81.7989,0,U,69661,999,261,-.3475E-2,-.631787E-2,0
STARLINK-37852,2026-143P,2026-07-01T04:00:03.000096,15.80890979,.0001183,97.2823,225.7332,67.8145,36.8259,0,U,69662,999,261,-.8798E-3,-.166068E-2,0
STARLINK-37554,2026-143Q,2026-07-01T04:00:03.000096,15.80878301,.0001239,97.2833,225.7502,76.8052,65.9934,0,U,69663,999,265,-.59722E-3,-.113387E-2,0
STARLINK-37830,2026-143R,2026-07-01T04:00:03.000096,15.80887976,.0000719,97.2824,225.7352,67.8594,41.4056,0,U,69664,999,260,-.82029E-3,-.155008E-2,0
STARLINK-37837,2026-143S,2026-07-01T04:00:03.000096,15.80903518,.0000492,97.2831,225.7513,52.0152,94.5561,0,U,69665,999,261,-.81457E-3,-.154051E-2,0
STARLINK-37943,2026-143T,2026-07-01T04:00:03.000096,15.80853897,.0001823,97.2829,225.7467,133.5565,2.7696,0,U,69666,999,261,-.32094E-3,-.61297E-3,0
STARLINK-37941,2026-143U,2026-07-01T04:00:03.000096,15.80884747,.0001322,97.2825,225.7439,70.5586,57.6092,0,U,69667,999,261,-.77753E-3,-.147059E-2,0
STARLINK-37930,2026-143V,2026-07-01T04:00:03.000096,15.80903755,.0001238,97.2824,225.7465,83.7764,50.4176,0,U,69668,999,260,-.10294E-2,-.19378E-2,0
STARLINK-37945,2026-143W,2026-07-01T04:00:03.000096,15.80891848,.0001108,97.2827,225.7510,65.9867,78.1590,0,U,69669,999,261,-.79097E-3,-.1496E-2,0
STARLINK-37948,2026-143X,2026-07-01T04:00:03.000096,15.83765098,.0001745,97.2825,225.7852,77.9530,144.2127,0,U,69670,999,261,-.12708E-1,-.2415359E-1,0
STARLINK-37949,2026-143Y,2026-07-01T04:00:03.000096,15.80840951,.0001455,97.2827,225.7729,48.4428,147.2616,0,U,69671,999,261,-.35366E-3,-.67442E-3,0
STARLINK-37946,2026-143Z,2026-07-01T04:00:03.000096,15.80839097,.0001331,97.2828,225.7632,70.4675,102.6132,0,U,69672,999,261,-.24559E-3,-.46982E-3,0
